
# Worst residual: 24.90 km
# MJD 55503.000000 (2010 Nov  3  0:00)
2010-050B = RV223A9 = Chang'e 2 hardware
1 99999U 10050B   10307.49923398  .00000000  00000-0  00000-0 0    02
2 99999 079.3714 344.9756 2970541 311.6004 035.7929 00.04553755    08

# Worst residual: 38.32 km
# MJD 55504.000000 (2010 Nov  4  0:00)
2010-050B = RV223A9 = Chang'e 2 hardware
1 99999U 10050B   10308.49923398  .00000000  00000-0  00000-0 0    03
2 99999 079.4547 344.9431 2915416 309.7799 053.8293 00.04633577    08

# Worst residual: 43.38 km
# MJD 55505.000000 (2010 Nov  5  0:00)
2010-050B = RV223A9 = Chang'e 2 hardware
1 99999U 10050B   10309.49923398  .00000000  00000-0  00000-0 0    04
2 99999 079.4897 344.8957 2926474 307.7113 072.0823 00.04700317    01

# Worst residual: 45.24 km
# MJD 55506.000000 (2010 Nov  6  0:00)
2010-050B = RV223A9 = Chang'e 2 hardware
1 99999U 10050B   10310.49923398  .00000000  00000-0  00000-0 0    06
2 99999 079.4835 344.7732 2986480 306.6156 089.3731 00.04733000    05

# Worst residual: 45.56 km
# MJD 55507.000000 (2010 Nov  7  0:00)
2010-050B = RV223A9 = Chang'e 2 hardware
1 99999U 10050B   10311.49923398  .00000000  00000-0  00000-0 0    07
2 99999 079.4756 344.5685 3052915 306.6687 105.4997 00.04735921    07

# Worst residual: 43.35 km
# MJD 55508.000000 (2010 Nov  8  0:00)
2010-050B = RV223A9 = Chang'e 2 hardware
1 99999U 10050B   10312.49923398  .00000000  00000-0  00000-0 0    08
2 99999 079.4954 344.3278 3098038 307.4860 120.8316 00.04720647    06

# Worst residual: 37.39 km
# MJD 55509.000000 (2010 Nov  9  0:00)
2010-050B = RV223A9 = Chang'e 2 hardware
1 99999U 10050B   10313.49923398  .00000000  00000-0  00000-0 0    09
2 99999 079.5402 344.1154 3113801 308.5937 135.8652 00.04698458    02

# Worst residual: 29.09 km
# MJD 55510.000000 (2010 Nov 10  0:00)
2010-050B = RV223A9 = Chang'e 2 hardware
1 99999U 10050B   10314.49923398  .00000000  00000-0  00000-0 0    00
2 99999 079.5831 343.9741 3105406 309.6296 151.0153 00.04677493    01

# Worst residual: 20.64 km
# MJD 55511.000000 (2010 Nov 11  0:00)
2010-050B = RV223A9 = Chang'e 2 hardware
1 99999U 10050B   10315.49923398  .00000000  00000-0  00000-0 0    01
2 99999 079.5962 343.9069 3083294 310.4019 166.5285 00.04661763    02

# Worst residual: 14.16 km
# MJD 55512.000000 (2010 Nov 12  0:00)
2010-050B = RV223A9 = Chang'e 2 hardware
1 99999U 10050B   10316.49923398  .00000000  00000-0  00000-0 0    02
2 99999 079.5697 343.8861 3056957 310.8753 182.4689 00.04651691    05

# Worst residual: 9.94 km
# MJD 55513.000000 (2010 Nov 13  0:00)
2010-050B = RV223A9 = Chang'e 2 hardware
1 99999U 10050B   10317.49923398  .00000000  00000-0  00000-0 0    03
2 99999 079.5157 343.8749 3032071 311.1151 198.7605 00.04645781    09

# Worst residual: 7.04 km
# MJD 55514.000000 (2010 Nov 14  0:00)
2010-050B = RV223A9 = Chang'e 2 hardware
1 99999U 10050B   10318.49923398  .00000000  00000-0  00000-0 0    04
2 99999 079.4595 343.8462 3010404 311.2281 215.2520 00.04642420    05

# Worst residual: 6.10 km
# MJD 55515.000000 (2010 Nov 15  0:00)
2010-050B = RV223A9 = Chang'e 2 hardware
1 99999U 10050B   10319.49923398  .00000000  00000-0  00000-0 0    05
2 99999 079.4262 343.7919 2991017 311.3262 231.7685 00.04641251    05

# Worst residual: 10.64 km
# MJD 55516.000000 (2010 Nov 16  0:00)
2010-050B = RV223A9 = Chang'e 2 hardware
1 99999U 10050B   10320.49923398  .00000000  00000-0  00000-0 0    07
2 99999 079.4289 343.7211 2971155 311.5174 248.1402 00.04644008    06

# Worst residual: 19.39 km
# MJD 55517.000000 (2010 Nov 17  0:00)
2010-050B = RV223A9 = Chang'e 2 hardware
1 99999U 10050B   10321.49923398  .00000000  00000-0  00000-0 0    08
2 99999 079.4635 343.6515 2945996 311.9050 264.2209 00.04654883    04

# Worst residual: 31.57 km
# MJD 55518.000000 (2010 Nov 18  0:00)
2010-050B = RV223A9 = Chang'e 2 hardware
1 99999U 10050B   10322.49923398  .00000000  00000-0  00000-0 0    09
2 99999 079.5099 343.5987 2907223 312.5620 279.9302 00.04680050    04

# Worst residual: 46.62 km
# MJD 55519.000000 (2010 Nov 19  0:00)
2010-050B = RV223A9 = Chang'e 2 hardware
1 99999U 10050B   10323.49923398  .00000000  00000-0  00000-0 0    00
2 99999 079.5429 343.5678 2842328 313.4419 295.3492 00.04725536    09

# Worst residual: 62.52 km
# MJD 55520.000000 (2010 Nov 20  0:00)
2010-050B = RV223A9 = Chang'e 2 hardware
1 99999U 10050B   10324.49923398  .00000000  00000-0  00000-0 0    01
2 99999 079.5462 343.5534 2739354 314.2229 310.8651 00.04792549    07

# Worst residual: 75.20 km
# MJD 55521.000000 (2010 Nov 21  0:00)
2010-050B = RV223A9 = Chang'e 2 hardware
1 99999U 10050B   10325.49923398  .00000000  00000-0  00000-0 0    02
2 99999 079.5217 343.5484 2602826 314.1906 327.2586 00.04870175    04

# Worst residual: 79.80 km
# MJD 55522.000000 (2010 Nov 22  0:00)
2010-050B = RV223A9 = Chang'e 2 hardware
1 99999U 10050B   10326.49923398  .00000000  00000-0  00000-0 0    03
2 99999 079.4805 343.5504 2477774 312.5692 345.3392 00.04929539    00

# Worst residual: 75.16 km
# MJD 55523.000000 (2010 Nov 23  0:00)
2010-050B = RV223A9 = Chang'e 2 hardware
1 99999U 10050B   10327.49923398  .00000000  00000-0  00000-0 0    04
2 99999 079.4246 343.5477 2441663 309.8234 004.6335 00.04932545    00

# Worst residual: 64.96 km
# MJD 55524.000000 (2010 Nov 24  0:00)
2010-050B = RV223A9 = Chang'e 2 hardware
1 99999U 10050B   10328.49923398  .00000000  00000-0  00000-0 0    05
2 99999 079.3533 343.5072 2521397 308.1788 022.8745 00.04862458    00

# Worst residual: 54.20 km
# MJD 55525.000000 (2010 Nov 25  0:00)
2010-050B = RV223A9 = Chang'e 2 hardware
1 99999U 10050B   10329.49923398  .00000000  00000-0  00000-0 0    06
2 99999 079.2911 343.4049 2649282 309.0497 038.5975 00.04742001    03

# Worst residual: 42.33 km
# MJD 55526.000000 (2010 Nov 26  0:00)
2010-050B = RV223A9 = Chang'e 2 hardware
1 99999U 10050B   10330.49923398  .00000000  00000-0  00000-0 0    08
2 99999 079.2819 343.2750 2739165 311.6287 052.5906 00.04616301    06

# Worst residual: 31.74 km
# MJD 55527.000000 (2010 Nov 27  0:00)
2010-050B = RV223A9 = Chang'e 2 hardware
1 99999U 10050B   10331.49923398  .00000000  00000-0  00000-0 0    09
2 99999 079.3368 343.2028 2749849 314.1060 066.7202 00.04530809    05

# Worst residual: 34.15 km
# MJD 55528.000000 (2010 Nov 28  0:00)
2010-050B = RV223A9 = Chang'e 2 hardware
1 99999U 10050B   10332.49923398  .00000000  00000-0  00000-0 0    00
2 99999 079.4101 343.2424 2698897 314.9343 082.6543 00.04510604    05
